ONEWEB-0032             
1 45141U 20008L   23286.54946479  .00000010  00000+0 -83300-5 0  9994
2 45141  87.8886 230.4452 0002034  74.1146 286.0205 13.10370708180264
ONEWEB-0033             
1 45142U 20008M   23286.59984293  .00000514  00000+0  14350-2 0  9990
2 45142  87.8893 230.4426 0001780  68.9442 291.1876 13.10376693180182
ONEWEB-0035             
1 45143U 20008N   23286.40324133 -.00000262  00000+0 -78566-3 0  9994
2 45143  87.8883 230.4550 0001854  73.3712 286.7619 13.10371802179889
ONEWEB-0036             
1 45144U 20008P   23286.54622971  .00000100  00000+0  24902-3 0  9995
2 45144  87.8887 230.3875 0002178  76.1814 283.9556 13.10368004180338
ONEWEB-0038             
1 45145U 20008Q   23286.33665488  .00000564  00000+0  15563-2 0  9999
2 45145  87.8994 215.3103 0002760  69.5979 290.5446 13.11417495182165
ONEWEB-0040             
1 45147U 20008S   23286.36752222  .00000502  00000+0  14031-2 0  9998
2 45147  87.8893 230.4279 0002042  76.9866 283.1489 13.10375532179803
